[{"OBJECT_NAME":"STARLINK-35720","OBJECT_ID":"2025-294Y","EPOCH":"2026-03-09T21:46:41.755008","MEAN_MOTION":15.27587029,"ECCENTRICITY":0.00014529,"INCLINATION":43.0044,"RA_OF_ASC_NODE":36.7413,"ARG_OF_PERICENTER":247.9549,"MEAN_ANOMALY":112.1149,"EPHEMERIS_TYPE":0,"CLASSIFICATION_TYPE":"U","NORAD_CAT_ID":67052,"ELEMENT_SET_NO":999,"REV_AT_EPOCH":1483,"BSTAR":0.0011897905,"MEAN_MOTION_DOT":0.0003263,"MEAN_MOTION_DDOT":0},{"OBJECT_NAME":"USA 60","OBJECT_ID":"1990-050B","EPOCH":"2026-03-09T13:24:55.962720","MEAN_MOTION":13.64521674,"ECCENTRICITY":0.0879763,"INCLINATION":63.2945,"RA_OF_ASC_NODE":117.426,"ARG_OF_PERICENTER":81.005,"MEAN_ANOMALY":288.9398,"EPHEMERIS_TYPE":0,"CLASSIFICATION_TYPE":"U","NORAD_CAT_ID":20682,"ELEMENT_SET_NO":999,"REV_AT_EPOCH":9025,"BSTAR":0.00037184,"MEAN_MOTION_DOT":5.55e-5,"MEAN_MOTION_DDOT":0}]
